ONEWEB-0431             
1 51630U 22012J   24016.59328846  .00000480  00000+0  13395-2 0  9994
2 51630  87.8893 211.5829 0002101  78.4973 281.6390 13.10376920 93755
ONEWEB-0434             
1 51631U 22012K   24016.57066296 -.00000531  00000+0 -15572-2 0  9999
2 51631  87.8898 211.5919 0001592  97.4965 262.6343 13.10371795 93736
ONEWEB-0435             
1 51632U 22012L   24016.57880313 -.00000258  00000+0 -77593-3 0  9992
2 51632  87.8900 211.5800 0001863  97.8111 262.3228 13.10375903 93721
ONEWEB-0436             
1 51633U 22012M   24016.53102037  .00000051  00000+0  98589-4 0  9997
2 51633  87.9211 181.3700 0001626 100.6347 259.4968 13.17652814 97449
ONEWEB-0438             
1 51634U 22012N   24016.56255703 -.00000643  00000+0 -18775-2 0  9996
2 51634  87.8896 211.5841 0001263  95.9727 264.1544 13.10372536 93751
ONEWEB-0439             
1 51635U 22012P   24016.56579534 -.00000671  00000+0 -19575-2 0  9998
2 51635  87.8901 211.5678 0001488  87.6700 272.4598 13.10375259 93739
ONEWEB-0442             
1 51636U 22012Q   24016.52312068  .00000010  00000+0 -62236-5 0  9993
2 51636  87.9214 181.4011 0000865  66.3627 293.7595 13.17649526 97436
ONEWEB-0443             
1 51637U 22012R   24016.54209111  .00000015  00000+0  67767-5 0  9998
2 51637  87.9217 181.4022 0001709 113.9888 246.1422 13.17650590 97487
